NORAD_CAT_ID,OBJECT_NAME,OBJECT_TYPE,EPOCH,MEAN_MOTION,ECCENTRICITY,INCLINATION,RA_OF_ASC_NODE,ARG_OF_PERICENTER,MEAN_ANOMALY,BSTAR,MEAN_MOTION_DOT,MEAN_MOTION_DDOT,TLE_LINE0,TLE_LINE1,TLE_LINE2,SEMIMAJOR_AXIS,PERIOD,APOGEE,PERIGEE,DECAYED
55432.0,STARLINK-5637,PAYLOAD,2023-11-05 20:27:29,14.98321625,0.0003111,69.999,99.7552,272.8192,87.2611,-1.8635e-05,-3.15e-06,0.0,0 STARLINK-5637,1 55432U 23014AT  23309.85242808 -.00000315  00000-0 -18635-4 0  9991,2 55432  69.9990  99.7552 0003111 272.8192  87.2611 14.98321625 43022,6950.219,96.108,574.246,569.922,0.0
55432.0,STARLINK-5637,PAYLOAD,2023-11-06 02:52:01,14.98326679,0.000314,69.9991,99.082,272.1807,87.8992,4.5143e-06,-3.9e-07,0.0,0 STARLINK-5637,1 55432U 23014AT  23310.11946483 -.00000039  00000-0  45143-5 0  9999,2 55432  69.9991  99.0820 0003140 272.1807  87.8992 14.98326679 42124,6950.203,96.107,574.251,569.886,0.0
55432.0,STARLINK-5637,PAYLOAD,2023-11-06 10:52:41,14.98335759,0.000339,69.9967,98.2374,275.0219,85.0553,-2.2973e-05,-3.67e-06,0.0,0 STARLINK-5637,1 55432U 23014AT  23310.45325827 -.00000367  00000-0 -22973-4 0  9999,2 55432  69.9967  98.2374 0003390 275.0219  85.0553 14.98335759 42175,6950.175,96.107,574.396,569.684,0.0
55432.0,STARLINK-5637,PAYLOAD,2023-11-06 14:04:57,14.98339062,0.0003341,69.9982,97.9013,275.4045,84.6733,3.9481e-05,3.78e-06,0.0,0 STARLINK-5637,1 55432U 23014AT  23310.58677437  .00000378  00000-0  39481-4 0  9992,2 55432  69.9982  97.9013 0003341 275.4045  84.6733 14.98339062 43138,6950.165,96.106,574.352,569.708,0.0
55432.0,STARLINK-5637,PAYLOAD,2023-11-06 18:53:20,14.9834517,0.0003449,69.9985,97.3968,277.4485,82.6282,0.00011267,1.252e-05,0.0,0 STARLINK-5637,1 55432U 23014AT  23310.78704753  .00001252  00000-0  11267-3 0  9999,2 55432  69.9985  97.3968 0003449 277.4485  82.6282 14.98345170 42226,6950.146,96.106,574.408,569.614,0.0
55432.0,STARLINK-5637,PAYLOAD,2023-11-07 02:54:02,14.9831659,0.0002852,69.9992,96.5547,282.5191,77.5649,0.00024924,2.881e-05,0.0,0 STARLINK-5637,1 55432U 23014AT  23311.12086456  .00002881  00000-0  24924-3 0  9994,2 55432  69.9992  96.5547 0002852 282.5191  77.5649 14.98316590 42275,6950.234,96.108,574.082,570.117,0.0
55432.0,STARLINK-5637,PAYLOAD,2023-11-07 10:54:44,14.98306964,0.0003301,69.9983,95.7149,271.5645,88.5136,-0.0003683,-4.482e-05,0.0,0 STARLINK-5637,1 55432U 23014AT  23311.45468401 -.00004482  00000-0 -36830-3 0  9994,2 55432  69.9983  95.7149 0003301 271.5645  88.5136 14.98306964 42329,6950.264,96.108,574.423,569.835,0.0
55432.0,STARLINK-5637,PAYLOAD,2023-11-07 14:07:00,14.98306964,0.0003143,69.9987,95.3785,270.4609,89.619,-0.00035666,-4.343e-05,0.0,0 STARLINK-5637,1 55432U 23014AT  23311.58820517 -.00004343  00000-0 -35666-3 0  9990,2 55432  69.9987  95.3785 0003143 270.4609  89.6190 14.98306964 43285,6950.264,96.108,574.314,569.945,0.0
55432.0,STARLINK-5637,PAYLOAD,2023-11-07 18:55:24,14.98319988,0.000294,69.9994,94.8741,269.1229,90.9593,-0.00055872,-6.751e-05,0.0,0 STARLINK-5637,1 55432U 23014AT  23311.78848344 -.00006751  00000-0 -55872-3 0  9996,2 55432  69.9994  94.8741 0002940 269.1229  90.9593 14.98319988 42377,6950.224,96.108,574.132,570.045,0.0
55432.0,STARLINK-5637,PAYLOAD,2023-11-08 10:56:44,14.98337077,0.0003045,70.0002,93.1923,269.9516,90.1294,6.9168e-05,7.33e-06,0.0,0 STARLINK-5637,1 55432U 23014AT  23312.45606521  .00000733  00000-0  69168-4 0  9996,2 55432  70.0002  93.1923 0003045 269.9516  90.1294 14.98337077 42478,6950.171,96.107,574.152,569.92,0.0
55432.0,STARLINK-5637,PAYLOAD,2023-11-08 14:09:00,14.9833721,0.0003057,69.9992,92.8527,273.5019,86.579,9.0678e-05,9.89e-06,0.0,0 STARLINK-5637,1 55432U 23014AT  23312.58958452  .00000989  00000-0  90678-4 0  9996,2 55432  69.9992  92.8527 0003057 273.5019  86.5790 14.98337210 43437,6950.171,96.107,574.16,569.911,0.0
55432.0,STARLINK-5637,PAYLOAD,2023-11-08 18:57:23,14.98342026,0.0003016,69.9999,92.349,280.9178,79.1642,0.00013381,1.504e-05,0.0,0 STARLINK-5637,1 55432U 23014AT  23312.78986039  .00001504  00000-0  13381-3 0  9999,2 55432  69.9999  92.3490 0003016 280.9178  79.1642 14.98342026 43469,6950.156,96.106,574.117,569.925,0.0
55432.0,STARLINK-5637,PAYLOAD,2023-11-09 12:34:53,14.98323122,0.0002993,70.0004,90.4983,268.8505,91.2311,0.00043141,5.057e-05,0.0,0 STARLINK-5637,1 55432U 23014AT  23313.52422460  .00005057  00000-0  43141-3 0  9999,2 55432  70.0004  90.4983 0002993 268.8505  91.2311 14.98323122 42639,6950.214,96.107,574.159,569.999,0.0
55432.0,STARLINK-5637,PAYLOAD,2023-11-09 14:11:01,14.98323503,0.0002938,70.0003,90.3298,268.4734,91.6089,0.00041519,4.864e-05,0.0,0 STARLINK-5637,1 55432U 23014AT  23313.59098490  .00004864  00000-0  41519-3 0  9990,2 55432  70.0003  90.3298 0002938 268.4734  91.6089 14.98323503 43589,6950.213,96.107,574.12,570.036,0.0
55432.0,STARLINK-5637,PAYLOAD,2023-11-09 18:59:25,14.98324705,0.0002865,70.0004,89.8257,267.3414,92.7417,0.0004408,5.17e-05,0.0,0 STARLINK-5637,1 55432U 23014AT  23313.79126463  .00005170  00000-0  44080-3 0  9991,2 55432  70.0004  89.8257 0002865 267.3414  92.7417 14.98324705 43616,6950.209,96.107,574.066,570.083,0.0
55432.0,STARLINK-5637,PAYLOAD,2023-11-10 03:00:06,14.98324777,0.0002581,70.0016,88.984,296.3061,63.7833,0.00030759,3.578e-05,0.0,0 STARLINK-5637,1 55432U 23014AT  23314.12507181  .00003578  00000-0  30759-3 0  9997,2 55432  70.0016  88.9840 0002581 296.3061  63.7833 14.98324777 42722,6950.209,96.107,573.868,570.28,0.0
55432.0,STARLINK-5637,PAYLOAD,2023-11-10 11:00:46,14.98338268,0.000289,70.0004,88.1414,275.0747,85.0082,6.3781e-06,-1.7e-07,0.0,0 STARLINK-5637,1 55432U 23014AT  23314.45886613 -.00000017  00000-0  63781-5 0  9992,2 55432  70.0004  88.1414 0002890 275.0747  85.0082 14.98338268 42774,6950.167,96.106,574.041,570.024,0.0
55432.0,STARLINK-5637,PAYLOAD,2023-11-10 14:13:02,14.98337732,0.000292,70.0003,87.805,274.1073,85.9752,-1.2263e-05,-2.39e-06,0.0,0 STARLINK-5637,1 55432U 23014AT  23314.59238585 -.00000239  00000-0 -12263-4 0  9991,2 55432  70.0003  87.8050 0002920 274.1073  85.9752 14.98337732 43736,6950.169,96.107,574.063,570.005,0.0
55432.0,STARLINK-5637,PAYLOAD,2023-11-10 19:01:25,14.98343616,0.0003017,69.9995,87.2994,272.4413,87.64,2.2369e-06,-6.6e-07,0.0,0 STARLINK-5637,1 55432U 23014AT  23314.79265951 -.00000066  00000-0  22369-5 0  9996,2 55432  69.9995  87.2994 0003017 272.4413  87.6400 14.98343616 43761,6950.151,96.106,574.113,569.919,0.0
55432.0,STARLINK-5637,PAYLOAD,2023-11-11 11:02:46,14.98340865,0.000257,70.0001,85.6161,273.9165,86.17,-0.00013536,-1.708e-05,0.0,0 STARLINK-5637,1 55432U 23014AT  23315.46026188 -.00001708  00000-0 -13536-3 0  9997,2 55432  70.0001  85.6161 0002570 273.9165  86.1700 14.98340865 42920,6950.159,96.106,573.81,570.238,0.0
55432.0,STARLINK-5637,PAYLOAD,2023-11-11 14:15:02,14.98350352,0.0002522,70.0003,85.2806,274.4459,85.6412,-0.00034316,-4.187e-05,0.0,0 STARLINK-5637,1 55432U 23014AT  23315.59377852 -.00004187  00000-0 -34316-3 0  9991,2 55432  70.0003  85.2806 0002522 274.4459  85.6412 14.98350352 43885,6950.13,96.106,573.748,570.242,0.0
55432.0,STARLINK-5637,PAYLOAD,2023-11-11 19:03:26,14.98363616,0.0002293,70.0002,84.7752,252.9967,107.0941,-0.00051595,-6.249e-05,0.0,0 STARLINK-5637,1 55432U 23014AT  23315.79405169 -.00006249  00000-0 -51595-3 0  9995,2 55432  70.0002  84.7752 0002293 252.9967 107.0941 14.98363616 42970,6950.089,96.105,573.548,570.36,0.0
55432.0,STARLINK-5637,PAYLOAD,2023-11-12 01:27:58,14.98337646,0.0003043,69.9999,84.1015,274.3199,85.7612,-0.00010982,-1.403e-05,0.0,0 STARLINK-5637,1 55432U 23014AT  23316.06109915 -.00001403  00000-0 -10982-3 0  9998,2 55432  69.9999  84.1015 0003043 274.3199  85.7612 14.98337646 43014,6950.169,96.107,574.149,569.919,0.0
55432.0,STARLINK-5637,PAYLOAD,2023-11-12 12:40:55,14.98331966,0.0003013,69.9999,82.9231,269.5386,90.5428,2.4128e-05,1.95e-06,0.0,0 STARLINK-5637,1 55432U 23014AT  23316.52841898  .00000195  00000-0  24128-4 0  9995,2 55432  69.9999  82.9231 0003013 269.5386  90.5428 14.98331966 44021,6950.187,96.107,574.146,569.958,0.0
55432.0,STARLINK-5637,PAYLOAD,2023-11-12 17:29:19,14.98334071,0.000291,70.0001,82.4184,267.5171,92.5655,4.7746e-05,4.77e-06,0.0,0 STARLINK-5637,1 55432U 23014AT  23316.72869669  .00000477  00000-0  47746-4 0  9997,2 55432  70.0001  82.4184 0002910 267.5171  92.5655 14.98334071 44052,6950.18,96.107,574.068,570.023,0.0
55432.0,STARLINK-5637,PAYLOAD,2023-11-13 11:06:47,14.98334143,0.0002963,70.0001,80.5669,267.5583,92.5236,5.9335e-05,6.15e-06,0.0,0 STARLINK-5637,1 55432U 23014AT  23317.46305437  .00000615  00000-0  59335-4 0  9998,2 55432  70.0001  80.5669 0002963 267.5583  92.5236 14.98334143 43227,6950.18,96.107,574.104,569.986,0.0
55432.0,STARLINK-5637,PAYLOAD,2023-11-13 14:19:03,14.98334575,0.0002968,70.0001,80.2303,266.9855,93.0964,6.1437e-05,6.4e-06,0.0,0 STARLINK-5637,1 55432U 23014AT  23317.59657364  .00000640  00000-0  61437-4 0  9995,2 55432  70.0001  80.2303 0002968 266.9855  93.0964 14.98334575 44188,6950.179,96.107,574.107,569.981,0.0
55432.0,STARLINK-5637,PAYLOAD,2023-11-14 11:08:49,14.98326642,0.00028,70.0005,78.0422,267.9076,92.1763,-4.3867e-05,-6.16e-06,0.0,0 STARLINK-5637,1 55432U 23014AT  23318.46446013 -.00000616  00000-0 -43867-4 0  9991,2 55432  70.0005  78.0422 0002800 267.9076  92.1763 14.98326642 43373,6950.203,96.107,574.014,570.122,0.0
55432.0,STARLINK-5637,PAYLOAD,2023-11-14 14:21:05,14.98326987,0.000281,70.0006,77.7057,268.2515,91.8322,-2.0312e-05,-3.35e-06,0.0,0 STARLINK-5637,1 55432U 23014AT  23318.59797948 -.00000335  00000-0 -20312-4 0  9999,2 55432  70.0006  77.7057 0002810 268.2515  91.8322 14.98326987 44333,6950.202,96.107,574.02,570.114,0.0
55432.0,STARLINK-5637,PAYLOAD,2023-11-14 17:33:21,14.98323453,0.0002879,70.0004,77.3689,267.3751,92.7078,-6.6082e-05,-8.81e-06,0.0,0 STARLINK-5637,1 55432U 23014AT  23318.73150306 -.00000881  00000-0 -66082-4 0  9996,2 55432  70.0004  77.3689 0002879 267.3751  92.7078 14.98323453 44350,6950.213,96.107,574.079,570.077,0.0
